[{"OBJECT_NAME":"STARLINK-2234","OBJECT_ID":"2021-041AD","EPOCH":"2026-03-09T09:10:09.799104","MEAN_MOTION":15.30219172,"ECCENTRICITY":0.00012112,"INCLINATION":53.1607,"RA_OF_ASC_NODE":102.4354,"ARG_OF_PERICENTER":92.2307,"MEAN_ANOMALY":267.8832,"EPHEMERIS_TYPE":0,"CLASSIFICATION_TYPE":"U","NORAD_CAT_ID":48580,"ELEMENT_SET_NO":999,"REV_AT_EPOCH":26559,"BSTAR":8.9533127e-5,"MEAN_MOTION_DOT":2.295e-5,"MEAN_MOTION_DDOT":0},{"OBJECT_NAME":"ALTAIR (RS65S)","OBJECT_ID":"2024-199AW","EPOCH":"2026-03-09T21:31:54.569568","MEAN_MOTION":15.34998047,"ECCENTRICITY":0.00120363,"INCLINATION":97.3179,"RA_OF_ASC_NODE":298.9542,"ARG_OF_PERICENTER":307.5319,"MEAN_ANOMALY":52.483,"EPHEMERIS_TYPE":0,"CLASSIFICATION_TYPE":"U","NORAD_CAT_ID":61779,"ELEMENT_SET_NO":999,"REV_AT_EPOCH":12187,"BSTAR":0.00027541775,"MEAN_MOTION_DOT":9.293e-5,"MEAN_MOTION_DDOT":0}]
